{
  "type": "FeatureCollection",
  "features": [
    {
      "type": "Feature",
      "geometry": {
        "type": "Polygon",
        "coordinates": [
          [
            [
              10000.0,
              12000.0
            ],
            [
              25000.0,
              12000.0
            ],
            [
              25000.0,
              32000.0
            ],
            [
              10000.0,
              32000.0
            ],
            [
              10000.0,
              12000.0
            ]
          ]
        ]
      },
      "properties": {
        "type": "radar_blind_zone",
        "id": 1,
        "area_km2": 209.56,
        "cause": "terrain_occlusion",
        "flight_altitude_m": 500
      }
    },
    {
      "type": "Feature",
      "geometry": {
        "type": "Polygon",
        "coordinates": [
          [
            [
              25300.0,
              13700.0
            ],
            [
              30000.0,
              13700.0
            ],
            [
              30000.0,
              26600.0
            ],
            [
              25300.0,
              26600.0
            ],
            [
              25300.0,
              13700.0
            ]
          ]
        ]
      },
      "properties": {
        "type": "radar_blind_zone",
        "id": 2,
        "area_km2": 23.7,
        "cause": "terrain_occlusion",
        "flight_altitude_m": 500
      }
    },
    {
      "type": "Feature",
      "geometry": {
        "type": "Polygon",
        "coordinates": [
          [
            [
              30700.0,
              18000.0
            ],
            [
              50000.0,
              18000.0
            ],
            [
              50000.0,
              38000.0
            ],
            [
              30700.0,
              38000.0
            ],
            [
              30700.0,
              18000.0
            ]
          ]
        ]
      },
      "properties": {
        "type": "radar_blind_zone",
        "id": 3,
        "area_km2": 225.25,
        "cause": "terrain_occlusion",
        "flight_altitude_m": 500
      }
    },
    {
      "type": "Feature",
      "geometry": {
        "type": "Polygon",
        "coordinates": [
          [
            [
              30000.0,
              21700.0
            ],
            [
              33500.0,
              21700.0
            ],
            [
              33500.0,
              27900.0
            ],
            [
              30000.0,
              27900.0
            ],
            [
              30000.0,
              21700.0
            ]
          ]
        ]
      },
      "properties": {
        "type": "radar_blind_zone",
        "id": 4,
        "area_km2": 13.25,
        "cause": "terrain_occlusion",
        "flight_altitude_m": 500
      }
    }
  ]
}